[{"OBJECT_NAME":"STARLINK-4720","OBJECT_ID":"2022-111AD","EPOCH":"2026-03-09T17:15:59.769792","MEAN_MOTION":15.52966516,"ECCENTRICITY":0.00033906,"INCLINATION":53.211,"RA_OF_ASC_NODE":239.7837,"ARG_OF_PERICENTER":149.7852,"MEAN_ANOMALY":210.3356,"EPHEMERIS_TYPE":0,"CLASSIFICATION_TYPE":"U","NORAD_CAT_ID":53800,"ELEMENT_SET_NO":999,"REV_AT_EPOCH":19416,"BSTAR":0.00052142465,"MEAN_MOTION_DOT":0.00032713,"MEAN_MOTION_DDOT":0},{"OBJECT_NAME":"IPERDRONE.0","OBJECT_ID":"2024-149BE","EPOCH":"2026-03-09T17:09:53.298144","MEAN_MOTION":15.54688406,"ECCENTRICITY":0.00029889,"INCLINATION":97.3808,"RA_OF_ASC_NODE":157.9725,"ARG_OF_PERICENTER":236.7753,"MEAN_ANOMALY":123.3215,"EPHEMERIS_TYPE":0,"CLASSIFICATION_TYPE":"U","NORAD_CAT_ID":60520,"ELEMENT_SET_NO":999,"REV_AT_EPOCH":8740,"BSTAR":0.00083831703,"MEAN_MOTION_DOT":0.00055777,"MEAN_MOTION_DDOT":0}]
