STARLINK-4720           
1 53800U 22111AD  26068.71944177  .00032713  00000+0  52142-3 0  9997
2 53800  53.2110 239.7837 0003391 149.7852 210.3356 15.52966516194168
IPERDRONE.0             
1 60520U 24149BE  26068.71520021  .00055777  00000+0  83832-3 0  9990
2 60520  97.3808 157.9725 0002989 236.7753 123.3215 15.54688406 87400
